STARLINK-1764           
1 46343C 20062V   22318.19006944  .00017863  00000-0  11972-2 0  3181
2 46343  53.0539  35.2551 0001486  78.4574 156.2348 15.06369039    14
STARLINK-1765           
1 46344C 20062W   22318.18034722  .00002716  00000-0  18196-3 0  3183
2 46344  53.0538  35.3109 0001365  81.6316   0.2679 15.06401942    15
STARLINK-1767           
1 46345C 20062X   22318.17756944  .00016643  00000-0  11151-2 0  3187
2 46345  53.0560  55.3008 0001255  75.9803 346.0154 15.06382021    11
STARLINK-1546           
1 46346C 20062Y   22318.19215278  .00029030  00000-0  86074-3 0  3181
2 46346  53.0540 229.3737 0002668  26.1773 101.5508 15.34244012    10
STARLINK-1547           
1 46347C 20062Z   22318.19493056  .00006371  00000-0  42692-3 0  3185
2 46347  53.0558  10.2382 0001569  51.3126 327.2319 15.06387723    17
STARLINK-1553           
1 46348C 20062AA  22318.18451389  .00004185  00000-0  28041-3 0  3181
2 46348  53.0559  35.2762 0001614  66.6205  17.8951 15.06393869    18
STARLINK-1575           
1 46349C 20062AB  22318.19493056  .00006569  00000-0  44014-3 0  3186
2 46349  53.0554  10.2319 0001831  55.3401 103.1928 15.06391079    13
STARLINK-1617           
1 46350C 20062AC  22318.17409722  .00019914  00000-0  13343-2 0  3181
2 46350  53.0532  55.3297 0001414  79.7445 158.2610 15.06377068    12
STARLINK-1646           
1 46351C 20062AD  22318.18312500  .00016116  00000-0  10802-2 0  3188
2 46351  53.0547  35.2639 0001350  70.7878 191.3408 15.06369060    12
STARLINK-1653           
1 46352C 20062AE  22318.18451389  .00014472  00000-0  96956-3 0  3186
2 46352  53.0545  35.2880 0001413  73.6200 290.8928 15.06388022    11
STARLINK-1656           
1 46353C 20062AF  22318.19423611  .00014867  00000-0  99613-3 0  3186
2 46353  53.0545  55.2424 0001365  79.0964 348.1772 15.06382853    11
STARLINK-1657           
1 46354C 20062AG  22318.18243056  .00028494  00000-0  19094-2 0  3184
2 46354  53.0558  55.2860 0001354  64.3362 358.8694 15.06365096    18
STARLINK-1661           
1 46355C 20062AH  22318.18451389  .00014511  00000-0  97238-3 0  3187
2 46355  53.0541  55.2869 0001428  87.3130 127.2100 15.06379397    19
STARLINK-1665           
1 46356C 20062AJ  22318.19493056 -.00007120  00000-0 -47709-3 0  3184
2 46356  53.0552  55.2302 0001343  95.4778 120.7120 15.06403864    15
STARLINK-1666           
1 46357C 20062AK  22318.18381944 -.00012985  00000-0 -86994-3 0  3180
2 46357  53.0533  35.2856 0001127  72.1671  88.5190 15.06415672    19
STARLINK-1690           
1 46358C 20062AL  22318.17756944  .00014167  00000-0  94900-3 0  3184
2 46358  53.0546  55.3168 0001539  72.8006 164.0379 15.06391378    14
STARLINK-1707           
1 46359C 20062AM  22318.19354167  .00005456  00000-0  36558-3 0  3184
2 46359  53.0545  10.2470 0001598  55.5184  15.4511 15.06392403    17
STARLINK-1713           
1 46360C 20062AN  22318.16506944  .00011726  00000-0  78568-3 0  3189
2 46360  53.0540  10.3733 0001848  42.2590 114.2316 15.06385024    11
STARLINK-1722           
1 46361C 20062AP  22318.19145833 -.00009729  00000-0 -65201-3 0  3181
2 46361  53.0563  10.2267 0001432  67.4365  37.4261 15.06401250    11
STARLINK-1726           
1 46362C 20062AQ  22318.18034722  .00011680  00000-0  78302-3 0  3188
2 46362  53.0551  10.3058 0001824  56.2268 103.2127 15.06366074    18
STARLINK-1739           
1 46363C 20062AR  22318.17062500 -.00013369  00000-0 -89600-3 0  3184
2 46363  53.0548  10.3216 0001745  61.7984  90.0095 15.06401985    17
STARLINK-1763           
1 46364C 20062AS  22318.17062500  .00010971  00000-0  73510-3 0  3182
2 46364  53.0551 350.8391 0001283  77.2388  59.0718 15.06388053    12
STARLINK-1550           
1 46365C 20062AT  22318.19145833 -.00043176  00000-0 -28919-2 0  3183
2 46365  53.0556  10.2489 0001544  46.7546 332.9478 15.06453266    15
STARLINK-1651           
1 46366C 20062AU  22318.19423611 -.00012074  00000-0 -80919-3 0  3189
2 46366  53.0560  10.2432 0001574  65.1880  29.6119 15.06401160    16
STARLINK-1658           
1 46368C 20062AW  22318.19076389  .00015883  00000-0  10646-2 0  3185
2 46368  53.0551  35.2291 0001315  72.1766  11.3957 15.06368848    15
STARLINK-1670           
1 46370C 20062AY  22318.17965278  .00014957  00000-0  10022-2 0  3189
2 46370  53.0540  35.2979 0001539  62.8266 155.3369 15.06381319    12
STARLINK-1688           
1 46371C 20062AZ  22318.17131944  .00016176  00000-0  10841-2 0  3189
2 46371  53.0544  35.3509 0001331  79.8775 133.0595 15.06374574    19
STARLINK-1689           
1 46372C 20062BA  22318.18034722  .00014353  00000-0  96163-3 0  3184
2 46372  53.0551  55.2919 0001322  74.4533 137.4476 15.06386866    10
STARLINK-1711           
1 46374C 20062BC  22318.17618056 -.00002750  00000-0 -18437-3 0  3181
2 46374  53.0544 345.3151 0001653  63.4797  50.8044 15.06380738    13
STARLINK-1724           
1 46375C 20062BD  22318.18659722  .00008681  00000-0  58181-3 0  3185
2 46375  53.0556  10.2580 0001742  54.2371  39.0948 15.06380526    13
STARLINK-1742           
1 46376C 20062BE  22318.18729167  .00007924  00000-0  53097-3 0  3187
2 46376  53.0552  10.2722 0001444  66.3510 310.7560 15.06389194    15
STARLINK-1758           
1 46380C 20062BJ  22318.19493056  .00010964  00000-0  73460-3 0  3182
2 46380  53.0542  35.2428 0001549  59.9338 181.0063 15.06386295    17
STARLINK-1769           
1 46382C 20062BL  22318.15951389  .00011442  00000-0  76671-3 0  3187
2 46382  53.0531  10.4052 0001792  46.2530 100.1197 15.06381862    13
STARLINK-1770           
1 46383C 20062BM  22318.18590278  .00006228  00000-0  41725-3 0  3185
2 46383  53.0539  55.2842 0001443  64.9983 297.0675 15.06398375    12
STARLINK-1771           
1 46384C 20062BN  22318.18937500  .00015930  00000-0  10675-2 0  3188
2 46384  53.0533  55.2505 0001474  88.1048 272.8171 15.06377431    19
STARLINK-1644           
1 46532C 20070A   22318.16229167  .00010959  00000-0  73450-3 0  3180
2 46532  53.0536 215.3836 0001660  46.7345 167.2274 15.06376237    14
STARLINK-1648           
1 46533C 20070B   22318.17409722  .00011078  00000-0  74252-3 0  3183
2 46533  53.0536 215.3183 0001828  47.2946 170.7584 15.06374438    13
STARLINK-1659           
1 46534C 20070C   22318.19354167  .00023554  00000-0  15781-2 0  3181
2 46534  53.0526 215.2424 0002070  49.8437  13.6518 15.06374563    14
STARLINK-1663           
1 46535C 20070D   22318.19284722  .00005009  00000-0  33554-3 0  3185
2 46535  53.0515 215.2509 0001751  57.5579  62.1646 15.06398061    15
STARLINK-1672           
1 46537C 20070F   22318.16993056  .00003871  00000-0  25932-3 0  3187
2 46537  53.0544 215.3498 0001748  53.9735 161.4263 15.06397526    10
STARLINK-1678           
1 46538C 20070G   22318.18451389 -.00001563  00000-0 -10472-3 0  3189
2 46538  53.0529 215.2785 0001632  53.6359   0.8852 15.06403758    18
STARLINK-1687           
1 46541C 20070K   22318.19562500  .00016429  00000-0  11007-2 0  3181
2 46541  53.0517 195.2358 0001459  80.5948 144.1760 15.06382695    18
STARLINK-1692           
1 46542C 20070L   22318.19423611  .00007412  00000-0  49654-3 0  3183
2 46542  53.0536 215.2452 0001801  56.6793 150.6027 15.06394792    10
STARLINK-1693           
1 46543C 20070M   22318.18173611  .00017268  00000-0  11568-2 0  3187
2 46543  53.0542 215.2969 0001551  56.1957 163.2305 15.06387051    19
STARLINK-1694           
1 46544C 20070N   22318.17618056  .00003317  00000-0  22226-3 0  3188
2 46544  53.0521 200.3274 0001498  74.4469 137.3663 15.06392972    19
STARLINK-1696           
1 46545C 20070P   22318.18868056  .00022342  00000-0  14967-2 0  3188
2 46545  53.0520 215.2599 0001905  48.5543   8.5269 15.06381390    15
STARLINK-1697           
1 46546C 20070Q   22318.18520833  .00018033  00000-0  12081-2 0  3184
2 46546  53.0536 215.2848 0001452  94.3358  23.9558 15.06385260    12
STARLINK-1698           
1 46547C 20070R   22318.16506944 -.00001655  00000-0 -11091-3 0  3185
2 46547  53.0538 215.3653 0001939  44.9926 169.1718 15.06395254    17
STARLINK-1699           
1 46548C 20070S   22318.17826389  .00018671  00000-0  12509-2 0  3183
2 46548  53.0537 215.3141 0001780  53.2893 167.3264 15.06381608    13
STARLINK-1700           
1 46549C 20070T   22318.18937500  .00021757  00000-0  14577-2 0  3189
2 46549  53.0528 215.2666 0001477  74.0790  46.8142 15.06378595    12
STARLINK-1701           
1 46550C 20070U   22318.19006944  .00020859  00000-0  13979-2 0  3188
2 46550  53.0525 215.2576 0002116  43.5137 161.1468 15.06368452    11
STARLINK-1649           
1 46552C 20070W   22318.13659722  .00053903  00000-0  73547-3 0  3186
2 46552  53.0483 173.3851 0004872 146.8879  81.4620 15.56799566    10
STARLINK-1664           
1 46553C 20070X   22318.18243056  .00013810  00000-0  92536-3 0  3183
2 46553  53.0532 185.3089 0001542  65.5189 162.6721 15.06381881    10
STARLINK-1671           
1 46554C 20070Y   22318.16437500  .00018919  00000-0  12674-2 0  3180
2 46554  53.0526 200.3642 0001672  65.7487 141.9697 15.06385444    15
STARLINK-1676           
1 46556C 20070AA  22318.15812500  .00022619  00000-0  15154-2 0  3186
2 46556  53.0524 215.3877 0001649  57.2166 154.1198 15.06376743    19
STARLINK-1679           
1 46557C 20070AB  22318.17479167  .00019034  00000-0  12751-2 0  3184
2 46557  53.0526 200.3295 0001733  58.3451   5.9246 15.06385046    16
STARLINK-1680           
1 46558C 20070AC  22318.14215278  .00019445  00000-0  13034-2 0  3184
2 46558  53.0531 200.4753 0001439  69.5280 137.6314 15.06362504    13
STARLINK-1681           
1 46559C 20070AD  22318.13034722  .00016489  00000-0  11047-2 0  3184
2 46559  53.0512 185.5178 0001700  55.7689 154.9522 15.06383465    10
STARLINK-1706           
1 46560C 20070AE  22318.15673611  .00018257  00000-0  12233-2 0  3187
2 46560  53.0524 200.4093 0001522  57.7080 148.5887 15.06378856    18
